{
  "norad_id": 55955,
  "name": "STARLINK-5878",
  "history": [
    {
      "epoch": "2026-03-28T17:24:51.476256Z",
      "apogee_km": 574.1827346782475,
      "perigee_km": 569.8916971173521,
      "latitude_deg": 6.507130179530611e-05,
      "longitude_deg": 129.13862345082748,
      "height_km": 574.4309050301758,
      "semi_major_axis_km": 6950.1742158977995,
      "eccentricity": 0.0003087,
      "inclination_deg": 70.0001,
      "raan_deg": 216.495,
      "arg_perigee_deg": 270.9041,
      "mean_anomaly_deg": 89.1765,
      "mean_motion_rev_day": 14.98336039
    },
    {
      "epoch": "2026-03-29T01:25:31.878336Z",
      "apogee_km": 574.1811327753585,
      "perigee_km": 569.9081610988214,
      "latitude_deg": 1.565460208904463e-05,
      "longitude_deg": 7.79965425661311,
      "height_km": 574.4263713301815,
      "semi_major_axis_km": 6950.18164693709,
      "eccentricity": 0.0003074,
      "inclination_deg": 70.0001,
      "raan_deg": 215.6534,
      "arg_perigee_deg": 271.2285,
      "mean_anomaly_deg": 88.8522,
      "mean_motion_rev_day": 14.98333636
    },
    {
      "epoch": "2026-03-30T01:27:33.253920Z",
      "apogee_km": 574.1351673448935,
      "perigee_km": 569.9890955550181,
      "latitude_deg": -2.7130062273899273e-05,
      "longitude_deg": 3.782778097265267,
      "height_km": 574.5257753087229,
      "semi_major_axis_km": 6950.1991314499555,
      "eccentricity": 0.00029827,
      "inclination_deg": 70.0005,
      "raan_deg": 213.1293,
      "arg_perigee_deg": 269.0004,
      "mean_anomaly_deg": 91.0813,
      "mean_motion_rev_day": 14.98327982
    },
    {
      "epoch": "2026-03-30T14:16:37.544736Z",
      "apogee_km": 574.0778002766237,
      "perigee_km": 570.0220881871865,
      "latitude_deg": 1.4293566613089471e-05,
      "longitude_deg": 169.6421045628028,
      "height_km": 574.5392966436318,
      "semi_major_axis_km": 6950.186944231905,
      "eccentricity": 0.00029177,
      "inclination_deg": 70.0007,
      "raan_deg": 211.7829,
      "arg_perigee_deg": 268.2502,
      "mean_anomaly_deg": 91.8323,
      "mean_motion_rev_day": 14.98331923
    },
    {
      "epoch": "2026-03-30T17:28:53.857632Z",
      "apogee_km": 574.1211938630577,
      "perigee_km": 569.9936124109227,
      "latitude_deg": 7.922202194886947e-07,
      "longitude_deg": 121.1060240035036,
      "height_km": 574.5592946166189,
      "semi_major_axis_km": 6950.19440313699,
      "eccentricity": 0.00029694,
      "inclination_deg": 70.0007,
      "raan_deg": 211.4464,
      "arg_perigee_deg": 267.9338,
      "mean_anomaly_deg": 92.1481,
      "mean_motion_rev_day": 14.98329511
    },
    {
      "epoch": "2026-03-31T14:18:38.350080Z",
      "apogee_km": 574.2362430260937,
      "perigee_km": 569.8659647463701,
      "latitude_deg": 1.4066070599276608e-05,
      "longitude_deg": 165.62622707064486,
      "height_km": 574.5296045190748,
      "semi_major_axis_km": 6950.188103886232,
      "eccentricity": 0.0003144,
      "inclination_deg": 70.0001,
      "raan_deg": 209.2574,
      "arg_perigee_deg": 268.6655,
      "mean_anomaly_deg": 91.4144,
      "mean_motion_rev_day": 14.98331548
    },
    {
      "epoch": "2026-04-01T14:20:39.558912Z",
      "apogee_km": 574.2767094762239,
      "perigee_km": 569.8397048559682,
      "latitude_deg": -4.049794080508609e-05,
      "longitude_deg": 161.60954410516874,
      "height_km": 574.5537016540337,
      "semi_major_axis_km": 6950.195207166095,
      "eccentricity": 0.0003192,
      "inclination_deg": 70.0003,
      "raan_deg": 206.7328,
      "arg_perigee_deg": 268.2482,
      "mean_anomaly_deg": 91.8311,
      "mean_motion_rev_day": 14.98329251
    },
    {
      "epoch": "2026-04-02T14:22:39.693792Z",
      "apogee_km": 574.2405620421396,
      "perigee_km": 569.8170595102129,
      "latitude_deg": 4.055274707262228e-05,
      "longitude_deg": 157.59749689111433,
      "height_km": 574.5287874200202,
      "semi_major_axis_km": 6950.165810776176,
      "eccentricity": 0.00031823,
      "inclination_deg": 70.0005,
      "raan_deg": 204.2083,
      "arg_perigee_deg": 268.1269,
      "mean_anomaly_deg": 91.9526,
      "mean_motion_rev_day": 14.98338757
    },
    {
      "epoch": "2026-04-03T17:36:56.901024Z",
      "apogee_km": 574.1724522886943,
      "perigee_km": 569.9161612564258,
      "latitude_deg": -8.263557756945814e-06,
      "longitude_deg": 105.04695308875209,
      "height_km": 574.6246706295228,
      "semi_major_axis_km": 6950.18130677256,
      "eccentricity": 0.0003062,
      "inclination_deg": 70.0011,
      "raan_deg": 201.3481,
      "arg_perigee_deg": 265.884,
      "mean_anomaly_deg": 94.1969,
      "mean_motion_rev_day": 14.98333746
    },
    {
      "epoch": "2026-04-04T14:26:42.063072Z",
      "apogee_km": 574.1201511191803,
      "perigee_km": 569.9833987603361,
      "latitude_deg": -2.294316765200638e-06,
      "longitude_deg": 149.56435412986386,
      "height_km": 574.5006564164441,
      "semi_major_axis_km": 6950.188774939758,
      "eccentricity": 0.0002976,
      "inclination_deg": 70.0012,
      "raan_deg": 199.1591,
      "arg_perigee_deg": 269.4083,
      "mean_anomaly_deg": 90.6735,
      "mean_motion_rev_day": 14.98331331
    },
    {
      "epoch": "2026-04-05T14:28:43.849056Z",
      "apogee_km": 574.1579602015627,
      "perigee_km": 570.019795713828,
      "latitude_deg": -5.938974112841198e-06,
      "longitude_deg": 145.54617544937025,
      "height_km": 574.580929404058,
      "semi_major_axis_km": 6950.225877957695,
      "eccentricity": 0.0002977,
      "inclination_deg": 70.0014,
      "raan_deg": 196.6354,
      "arg_perigee_deg": 268.213,
      "mean_anomaly_deg": 91.8688,
      "mean_motion_rev_day": 14.98319333
    },
    {
      "epoch": "2026-04-07T12:56:36.797856Z",
      "apogee_km": 574.4300885998437,
      "perigee_km": 569.6660147543216,
      "latitude_deg": 4.027354094495783e-05,
      "longitude_deg": 161.78522965238395,
      "height_km": 574.3807409385034,
      "semi_major_axis_km": 6950.185051677082,
      "eccentricity": 0.00034273,
      "inclination_deg": 70.0006,
      "raan_deg": 191.7533,
      "arg_perigee_deg": 272.2905,
      "mean_anomaly_deg": 87.7862,
      "mean_motion_rev_day": 14.98332535
    },
    {
      "epoch": "2026-04-07T16:08:52.886976Z",
      "apogee_km": 574.425000568097,
      "perigee_km": 569.6682948795951,
      "latitude_deg": -1.775266040194424e-05,
      "longitude_deg": 113.24996738336725,
      "height_km": 574.3784684137537,
      "semi_major_axis_km": 6950.183647723846,
      "eccentricity": 0.0003422,
      "inclination_deg": 70.0006,
      "raan_deg": 191.4167,
      "arg_perigee_deg": 272.315,
      "mean_anomaly_deg": 87.7617,
      "mean_motion_rev_day": 14.98332989
    },
    {
      "epoch": "2026-04-08T14:34:46.334208Z",
      "apogee_km": 574.2665231436058,
      "perigee_km": 569.8363340354545,
      "latitude_deg": 7.40996409879384e-05,
      "longitude_deg": 133.4997714863816,
      "height_km": 574.5807950185407,
      "semi_major_axis_km": 6950.18842858953,
      "eccentricity": 0.00031871,
      "inclination_deg": 70.0008,
      "raan_deg": 189.0604,
      "arg_perigee_deg": 267.3694,
      "mean_anomaly_deg": 92.7101,
      "mean_motion_rev_day": 14.98331443
    },
    {
      "epoch": "2026-04-09T13:00:38.682432Z",
      "apogee_km": 574.2968391041477,
      "perigee_km": 569.8264713291128,
      "latitude_deg": -6.39319467315725e-05,
      "longitude_deg": 153.75308416187255,
      "height_km": 574.3069661767248,
      "semi_major_axis_km": 6950.19865521663,
      "eccentricity": 0.0003216,
      "inclination_deg": 70.0002,
      "raan_deg": 186.7031,
      "arg_perigee_deg": 274.6791,
      "mean_anomaly_deg": 85.4,
      "mean_motion_rev_day": 14.98328136
    },
    {
      "epoch": "2026-04-09T22:37:25.785984Z",
      "apogee_km": 573.9807702377284,
      "perigee_km": 570.0066854875377,
      "latitude_deg": 5.4302442894704475e-05,
      "longitude_deg": 8.153865648389141,
      "height_km": 574.4141015771572,
      "semi_major_axis_km": 6950.130727862633,
      "eccentricity": 0.0002859,
      "inclination_deg": 70.0022,
      "raan_deg": 185.6949,
      "arg_perigee_deg": 270.2051,
      "mean_anomaly_deg": 89.8781,
      "mean_motion_rev_day": 14.98350102
    },
    {
      "epoch": "2026-04-11T14:40:44.823360Z",
      "apogee_km": 574.7455160125937,
      "perigee_km": 569.138192393023,
      "latitude_deg": 5.3214612341353244e-05,
      "longitude_deg": 121.47012712237053,
      "height_km": 574.0135310066618,
      "semi_major_axis_km": 6950.0788542028085,
      "eccentricity": 0.0004034,
      "inclination_deg": 69.9986,
      "raan_deg": 181.4855,
      "arg_perigee_deg": 277.3069,
      "mean_anomaly_deg": 82.7632,
      "mean_motion_rev_day": 14.98366877
    },
    {
      "epoch": "2026-04-13T05:08:02.307840Z",
      "apogee_km": 574.0846215217516,
      "perigee_km": 570.0163987645637,
      "latitude_deg": 3.278900585173462e-05,
      "longitude_deg": -100.97041811354596,
      "height_km": 574.4746569512968,
      "semi_major_axis_km": 6950.187510143157,
      "eccentricity": 0.00029267,
      "inclination_deg": 70.0016,
      "raan_deg": 177.4471,
      "arg_perigee_deg": 270.0943,
      "mean_anomaly_deg": 89.9881,
      "mean_motion_rev_day": 14.9833174
    },
    {
      "epoch": "2026-04-14T14:46:52.631616Z",
      "apogee_km": 574.2318830635104,
      "perigee_km": 569.9894518872834,
      "latitude_deg": 5.6448077084981335e-05,
      "longitude_deg": 109.40336343532196,
      "height_km": 574.5928173525206,
      "semi_major_axis_km": 6950.247667475397,
      "eccentricity": 0.0003052,
      "inclination_deg": 70.0001,
      "raan_deg": 173.9124,
      "arg_perigee_deg": 268.5236,
      "mean_anomaly_deg": 91.5574,
      "mean_motion_rev_day": 14.98312287
    }
  ]
}